*******************************************************************************
JPL/HORIZONS              341 California (A892 SE)         2023-Sep-04 11:05:47
Rec #:     341 (+COV) Soln.date: 2023-Aug-23_10:05:31   # obs: 4182 (1892-2023)
 
IAU76/J2000 helio. ecliptic osc. elements (au, days, deg., period=Julian yrs):
 
  EPOCH=  2457244.5 ! 2015-Aug-10.00 (TDB)         Residual RMS= .26181
   EC= .194257212661835    QR= 1.771972860695692   TP= 2457548.7964815539
   OM= 29.04894192407444   W=  293.8818197221972   IN= 5.66900278429311
   A= 2.199179302056856    MA= 268.0376531917043   ADIST= 2.626385743418021
   PER= 3.26136            N= .302212981           ANGMOM= .025024126
   DAN= 1.9619             DDN= 2.29683            L= 323.0349236
   B= -5.182246            MOID= .76882702         TP= 2016-Jun-09.2964815539
 
Asteroid physical parameters (km, seconds, rotational period in hours):
   GM= n.a.                RAD= 7.915              ROTPER= 318.
   H= 11.36                G= .150                 B-V= .920
                           ALBEDO= .425            STYP= S

ASTEROID comments: 
1: soln ref.= JPL#98, OCC=0
2: source=ORB
*******************************************************************************


*******************************************************************************
Ephemeris / API_USER Mon Sep  4 11:05:47 2023 Pasadena, USA      / Horizons
*******************************************************************************
Target body name: 341 California (A892 SE)        {source: JPL#98}
Center body name: Solar System Barycenter (0)     {source: DE441}
Center-site name: BODY CENTER
*******************************************************************************
Start time      : A.D. 2023-Aug-12 00:00:00.0000 TDB
Stop  time      : A.D. 2023-Aug-13 00:00:00.0000 TDB
Step-size       : 2880 minutes
*******************************************************************************
Center geodetic : 0.0, 0.0, 0.0                   {E-lon(deg),Lat(deg),Alt(km)}
Center cylindric: 0.0, 0.0, 0.0                   {E-lon(deg),Dxy(km),Dz(km)}
Center radii    : (undefined)
Small perturbers: Yes                             {source: SB441-N16}
Output units    : KM-S
Calendar mode   : Mixed Julian/Gregorian
Output type     : GEOMETRIC cartesian states
Output format   : 2 (position and velocity)
Reference frame : Ecliptic of J2000.0
*******************************************************************************
Initial IAU76/J2000 heliocentric ecliptic osculating elements (au, days, deg.):
  EPOCH=  2457244.5 ! 2015-Aug-10.00 (TDB)         Residual RMS= .26181        
   EC= .194257212661835    QR= 1.771972860695692   TP= 2457548.7964815539      
   OM= 29.04894192407444   W=  293.8818197221972   IN= 5.66900278429311        
  Equivalent ICRF heliocentric cartesian coordinates (au, au/d):
   X=-1.998098605523585E+00  Y=-1.033258499640305E+00  Z=-4.495835196263724E-01
  VX= 7.167833258077905E-03 VY=-7.297482597482871E-03 VZ=-4.336846999861404E-03
Asteroid physical parameters (km, seconds, rotational period in hours):        
   GM= n.a.                RAD= 7.915              ROTPER= 318.                
   H= 11.36                G= .150                 B-V= .920                   
                           ALBEDO= .425            STYP= S                     
*******************************************************************************
JDTDB
   X     Y     Z
   VX    VY    VZ
*******************************************************************************
$$SOE
2460168.500000000 = A.D. 2023-Aug-12 00:00:00.0000 TDB 
 X = 1.749097281501803E+08 Y = 2.674575939096365E+08 Z = 1.478546671635939E+07
 VX=-1.466906360133503E+01 VY= 1.429739090448250E+01 VZ= 1.948040014969123E+00
$$EOE
*******************************************************************************
 
TIME

  Barycentric Dynamical Time ("TDB" or T_eph) output was requested. This
continuous coordinate time is equivalent to the relativistic proper time
of a clock at rest in a reference frame co-moving with the solar system
barycenter but outside the system's gravity well. It is the independent
variable in the solar system relativistic equations of motion.

  TDB runs at a uniform rate of one SI second per second and is independent
of irregularities in Earth's rotation.
 
CALENDAR SYSTEM

  Mixed calendar mode was active such that calendar dates after AD 1582-Oct-15
(if any) are in the modern Gregorian system. Dates prior to 1582-Oct-5 (if any)
are in the Julian calendar system, which is automatically extended for dates
prior to its adoption on 45-Jan-1 BC.  The Julian calendar is useful for
matching historical dates. The Gregorian calendar more accurately corresponds
to the Earth's orbital motion and seasons. A "Gregorian-only" calendar mode is
available if such physical events are the primary interest.

REFERENCE FRAME AND COORDINATES

  Ecliptic at the standard reference epoch

    Reference epoch: J2000.0
    X-Y plane: adopted Earth orbital plane at the reference epoch
               Note: IAU76 obliquity of 84381.448 arcseconds wrt ICRF X-Y plane
    X-axis   : ICRF
    Z-axis   : perpendicular to the X-Y plane in the directional (+ or -) sense
               of Earth's north pole at the reference epoch.

  Symbol meaning:

    JDTDB    Julian Day Number, Barycentric Dynamical Time
      X      X-component of position vector (km)
      Y      Y-component of position vector (km)
      Z      Z-component of position vector (km)
      VX     X-component of velocity vector (km/sec)                           
      VY     Y-component of velocity vector (km/sec)                           
      VZ     Z-component of velocity vector (km/sec)                           

ABERRATIONS AND CORRECTIONS

 Geometric state vectors have NO corrections or aberrations applied.

Computations by ...

    Solar System Dynamics Group, Horizons On-Line Ephemeris System
    4800 Oak Grove Drive, Jet Propulsion Laboratory
    Pasadena, CA  91109   USA

    General site: https://ssd.jpl.nasa.gov/
    Mailing list: https://ssd.jpl.nasa.gov/email_list.html
    System news : https://ssd.jpl.nasa.gov/horizons/news.html
    User Guide  : https://ssd.jpl.nasa.gov/horizons/manual.html
    Connect     : browser        https://ssd.jpl.nasa.gov/horizons/app.html#/x
                  API            https://ssd-api.jpl.nasa.gov/doc/horizons.html
                  command-line   telnet ssd.jpl.nasa.gov 6775
                  e-mail/batch   https://ssd.jpl.nasa.gov/ftp/ssd/hrzn_batch.txt
                  scripts        https://ssd.jpl.nasa.gov/ftp/ssd/SCRIPTS
    Author      : Jon.D.Giorgini@jpl.nasa.gov
*******************************************************************************
